OSCAR 7 (AO-7)          
1 07530U 74089B   18347.88779270 -.00000027  00000-0  11217-3 0  9999
2 07530 101.7160 312.6849 0012245 349.3148  66.8355 12.53635736 16878
UOSAT 2 (UO-11)         
1 14781U 84021B   18348.55269427  .00000043  00000-0  11441-4 0  9992
2 14781  97.6303  16.8802 0007876 201.7724 158.3157 14.83050764871179
LUSAT (LO-19)           
1 20442U 90005G   18348.15991235  .00000002  00000-0  17072-4 0  9998
2 20442  98.6288 285.6811 0011491 344.9541  15.1299 14.32912504509666
ITAMSAT                 
1 22826U 93061D   18347.94297546 -.00000002  00000-0  17137-4 0  9994
2 22826  98.8790 327.5276 0009074 165.7179 194.4261 14.30379099315204
RADIO ROSTO (RS-15)     
1 23439U 94085A   18348.19893507 -.00000068  00000-0 -71614-3 0  9991
2 23439  64.8190  57.7137 0151048 148.9865 299.6498 11.27568100987025
JAS-2 (FO-29)           
1 24278U 96046B   18348.43246153 -.00000015  00000-0  21029-4 0  9995
2 24278  98.5136 162.3419 0350409   3.3900 356.9499 13.53088080102610
TECHSAT 1B (GO-32)      
1 25397U 98043D   18348.16355391 -.00000001  00000-0  18755-4 0  9999
2 25397  98.6694 285.7668 0000992 161.5755 198.5459 14.23656796 61335
ISS (ZARYA)             
1 25544U 98067A   18348.54369997 -.00001369  00000-0 -13427-4 0  9998
2 25544  51.6395 199.9195 0005329 146.7098 298.8977 15.54068222146565
PCSAT (NO-44)           
1 26931U 01043C   18347.82833837 -.00000023  00000-0  22964-4 0  9997
2 26931  67.0504 125.8702 0005942 259.6294 100.4138 14.30526417898248
SAUDISAT 1C (SO-50)     
1 27607U 02058C   18348.36628469 -.00000023  00000-0  17715-4 0  9996
2 27607  64.5553 259.2410 0079668 291.9290  67.3358 14.75505025859540
CUTE-1 (CO-55)          
1 27844U 03031E   18347.93061362  .00000045  00000-0  39977-4 0  9993
2 27844  98.6862 353.9290 0009324 206.3467 153.7238 14.22149450801700
CUBESAT XI-IV (CO-57)   
1 27848U 03031J   18347.94023538  .00000029  00000-0  33025-4 0  9991
2 27848  98.6943 354.3923 0009050 217.7165 142.3378 14.21748812801579
MOZHAYETS 4 (RS-22)     
1 27939U 03042A   18348.53924142  .00000101  00000-0  26599-4 0  9990
2 27939  98.0146 123.3079 0011600 299.4472  60.5574 14.66739595813251
CUBESAT XI 5            
1 28895U 05043F   18347.87520497  .00000124  00000-0  32601-4 0  9992
2 28895  97.9321 132.3333 0016062 218.1181 141.8887 14.63611280699924
CUTE-1.7+APD II (CO-65) 
1 32785U 08021C   18348.17851695  .00000190  00000-0  26182-4 0  9995
2 32785  97.5463 351.7565 0013664 155.7049 204.4815 14.88220154575943
DELFI-C3 (DO-64)        
1 32789U 08021G   18347.73801681  .00000912  00000-0  65741-4 0  9996
2 32789  97.4909  37.8243 0013381  50.5342 309.7067 15.06519903578811
SEEDS II (CO-66)        
1 32791U 08021J   18348.50832124  .00000385  00000-0  44557-4 0  9997
2 32791  97.5305 357.7918 0014472 133.8721 226.3696 14.90692556576375
YUBILEINY (RS-30)       
1 32953U 08025A   18348.40448118  .00000020  00000-0  75656-4 0  9996
2 32953  82.5046 260.5906 0018619 173.5170 186.6153 12.43086827479164
KKS-1 (KISEKI)          
1 33499U 09002H   18348.17485060  .00000086  00000-0  20678-4 0  9995
2 33499  98.3542 175.8327 0010428  81.5632 278.6758 14.75389099531720
SWISSCUBE               
1 35932U 09051B   18347.91315178  .00000128  00000-0  40045-4 0  9993
2 35932  98.5658 143.6556 0007973  26.6538 333.5067 14.56225464489558
BEESAT                  
1 35933U 09051C   18347.92804512  .00000098  00000-0  33126-4 0  9998
2 35933  98.5693 145.3289 0006451  40.8796 319.2883 14.56321741489624
ITUPSAT 1               
1 35935U 09051E   18347.67236169  .00000092  00000-0  32263-4 0  9994
2 35935  98.5804 145.3142 0008693  35.6048 324.5726 14.55490420489434
XIWANG-1 (HOPE-1)       
1 36122U 09072B   18347.76408046 -.00000035  00000-0  17393-4 0  9996
2 36122 100.0724 353.9619 0008309  58.9908 301.2013 13.16347430432286
JUGNU                   
1 37839U 11058B   18348.48201310  .00000321  00000-0  29462-4 0  9991
2 37839  19.9629  23.9596 0019149  74.5472  60.8212 14.12637059370899
SRMSAT                  
1 37841U 11058D   18348.54264190  .00000292  00000-0  15370-4 0  9996
2 37841  19.9728  76.5156 0011847 312.7265 161.0012 14.10620738370371
M-CUBED & EXP-1 PRIME   
1 37855U 11061F   18348.47504232  .00000994  00000-0  58335-4 0  9998
2 37855 101.7240 143.3384 0174971 268.4509  89.6654 15.04936144388761
STRAND-1                
1 39090U 13009E   18348.55635937  .00000028  00000-0  25108-4 0  9991
2 39090  98.5021 192.4375 0010093 118.5522 241.6680 14.35062640303695
SOMP                    
1 39134U 13015E   18347.88766066  .00001196  00000-0  65168-4 0  9997
2 39134  64.8639 265.4022 0011308 322.7350  37.2991 15.19659026312207
BEESAT-3                
1 39135U 13015F   18348.27588650  .00000808  00000-0  50466-4 0  9997
2 39135  64.8692 279.8839 0010754 261.7006  98.2901 15.17071980311961
BEESAT-2                
1 39136U 13015G   18348.17812127  .00000659  00000-0  43575-4 0  9993
2 39136  64.8703 283.4799 0009406 253.4538 106.5555 15.16523183311886
ZACUBE-1 (TSHEPISOSAT)  
1 39417U 13066B   18348.50867017  .00000191  00000-0  30570-4 0  9998
2 39417  97.5734   7.3812 0057567 284.7085  74.7753 14.81025617273488
GOMX 1                  
1 39430U 13066Q   18348.52018459  .00000186  00000-0  42205-4 0  9995
2 39430  97.7209 312.6306 0152391 121.1223 240.5020 14.59165533269450
CUBEBUG-2 (LO-74)       
1 39440U 13066AA  18348.50183554  .00000210  00000-0  36292-4 0  9990
2 39440  97.5988 352.9992 0079651 330.7878  28.8889 14.75765991272515
FUNCUBE-1 (AO-73)       
1 39444U 13066AE  18347.73300986  .00000223  00000-0  33997-4 0  9991
2 39444  97.5732   8.3940 0056700 281.8350  77.6509 14.81826599272242
UWE-3                   
1 39446U 13066AG  18347.67417552  .00000192  00000-0  32299-4 0  9993
2 39446  97.5847 358.9514 0068988 311.1135  48.4133 14.78299790271635
SPROUT                  
1 39770U 14029E   18348.46512715  .00000810  00000-0  96290-4 0  9996
2 39770  97.8828  88.1025 0008755 346.7404  13.3578 14.87098836247157
UNISAT-6                
1 40012U 14033C   18348.19093749  .00000163  00000-0  31831-4 0  9994
2 40012  97.7812 217.5216 0058065 340.6409  19.2594 14.73903716241218
DUCHIFAT-1              
1 40021U 14033M   18348.52505051  .00000486  00000-0  55666-4 0  9995
2 40021  97.9190 267.5729 0011950 308.7183  51.2966 14.90470555243815
QB50P1                  
1 40025U 14033R   18348.20469077  .00000233  00000-0  30859-4 0  9998
2 40025  97.9049 263.1994 0011577 318.4344  41.5992 14.88831053243575
NUDT-PHONESAT           
1 40900U 15049B   18348.44476506  .00002123  00000-0  95711-4 0  9997
2 40900  97.4394 354.6970 0014905 114.9403  25.0464 15.22038267179325
ZDPS 2A                 
1 40901U 15049C   18348.41204854  .00001086  00000-0  57561-4 0  9998
2 40901  97.4597 351.9913 0014911 126.0096  10.3028 15.17406135178988
ZDPS 2B                 
1 40902U 15049D   18348.53892951  .00001024  00000-0  54802-4 0  9990
2 40902  97.4511 349.8620 0014986 123.2535 352.6276 15.17188702178989
XW-2A                   
1 40903U 15049E   18348.41256377  .00001813  00000-0  45644-4 0  9994
2 40903  97.3633  24.9176 0015607  97.6169  16.8650 15.41162072181550
KAITUO 1A               
1 40904U 15049F   18348.52207700  .00000227  00000-0  15582-4 0  9999
2 40904  97.4629 348.8001 0015900 128.8210  29.4219 15.15191193178804
2015-049G               
1 40905U 15049G   18348.40215196  .00000695  00000-0  41586-4 0  9997
2 40905  97.4644 346.4779 0017051 123.2904  17.2116 15.14134066178688
XW-2C                   
1 40906U 15049H   18348.41507353  .00000808  00000-0  46130-4 0  9994
2 40906  97.4636 348.6719 0016451 121.6686 344.4467 15.15432116178783
XW-2D                   
1 40907U 15049J   18348.54838528  .00000916  00000-0  51610-4 0  9999
2 40907  97.4605 348.4838 0015754 118.8010 357.0863 15.15601784178817
LILACSAT 2              
1 40908U 15049K   18348.45672012  .00000185  00000-0  13875-4 0  9993
2 40908  97.4731 347.5123 0017512 123.1185  33.8823 15.13655096178639
XW-2F                   
1 40910U 15049M   18348.48686845  .00001240  00000-0  66142-4 0  9996
2 40910  97.4596 350.0669 0016634 114.4648  37.8005 15.16912025178789
XW-2B                   
1 40911U 15049N   18348.37329280  .00000458  00000-0  27597-4 0  9993
2 40911  97.4636 348.9107 0015701 119.9910 347.4247 15.15535669178685
KAITUO 1B               
1 40912U 15049P   18348.39409245  .00001244  00000-0  62220-4 0  9992
2 40912  97.4501 353.2251 0016846 101.1389   4.5550 15.19174907179025
TIANWANG 1C (TW-1C)     
1 40926U 15051B   18348.34015727  .00009072  00000-0  15194-3 0  9997
2 40926  97.1628  29.9785 0008819 353.9490 134.8339 15.52041208181228
TIANWANG 1A (TW-1A)     
1 40928U 15051D   18348.36130817  .00003034  00000-0  78772-4 0  9993
2 40928  97.1672  18.7003 0012850  36.0312  84.0304 15.39663026180499
LAPAN-A2                
1 40931U 15052B   18346.30775815  .00000742  00000-0  14194-4 0  9994
2 40931   6.0029 319.9472 0013927   8.7596 351.3157 14.76593299173379
E-ST@R-II               
1 41459U 16025D   18348.46403676  .00001485  00000-0  81360-4 0  9997
2 41459  98.1187  60.5801 0167715 263.5861  94.6232 15.04908792144535
AAUSAT 4                
1 41460U 16025E   18348.39134995  .00002125  00000-0  11247-3 0  9994
2 41460  98.1122  61.3236 0158540 258.3986  99.9403 15.06551426144610
NUSAT-1 (FRESCO)        
1 41557U 16033B   18348.47545743  .00001131  00000-0  45792-4 0  9995
2 41557  97.4294  72.0443 0012782 231.3383 128.6712 15.26724693141673
BEESAT-4                
1 41619U 16040W   18347.83847720  .00001180  00000-0  53699-4 0  9990
2 41619  97.3940  48.3298 0010447 327.0210  33.0373 15.22617103125421
ALSAT 1N                
1 41789U 16059G   18348.37136059  .00000078  00000-0  23984-4 0  9993
2 41789  98.0978  48.3964 0027097 239.1518 120.7019 14.64201882118387
CAS-2T & KS-1Q          
1 41847U 16066G   18347.71110690  .00000051  00000-0  17486-4 0  9997
2 41847  98.7316  20.2029 0367069  71.0878 292.9722 14.37943807110121
NAYIF-1 (EO-88)         
1 42017U 17008BX  18347.85288352  .00001284  00000-0  54381-4 0  9994
2 42017  97.4280  51.6868 0007941 105.2188 254.9928 15.24975916101444
LILACSAT-1              
1 42725U 98067ME  18348.47043462  .00066106  00000-0  30854-3 0  9996
2 42725  51.6321 151.2454 0003987 201.9048 190.6937 15.82658791 88938
MAX VALIER SAT          
1 42778U 17036P   18347.65991242  .00000850  00000-0  40574-4 0  9993
2 42778  97.3816  44.1983 0013301 154.5152 205.6742 15.21662308 81799
RADFXSAT (FOX-1B)       
1 43017U 17073E   18348.20605700  .00000722  00000-0  61425-4 0  9990
2 43017  97.7176 271.9221 0260092  45.8047 316.4215 14.78303271 57702
FOX-1D (AO-92)          
1 43137U 18004AC  18347.73962617  .00000897  00000-0  41098-4 0  9995
2 43137  97.5127  50.7489 0009302 182.3170 177.8025 15.23079447 51042
ES'HAIL 2               
1 43700U 18090A   18347.88305878  .00000148  00000-0  00000-0 0  9995
2 43700   0.0440 256.0914 0000589  48.9622 119.4107  1.00273040   420
